{"type":"FeatureCollection","fuente":"Natural Earth 1:50m Admin 0 Countries (dominio público)","generado":"2026-08-31","features":[{"type":"Feature","properties":{"pais":"ESP","nombre":"España"},"geometry":{"type":"MultiPolygon","coordinates":[[[[1.594,38.672],[1.571,38.659],[1.505,38.671],[1.406,38.671],[1.402,38.711],[1.417,38.74],[1.436,38.768],[1.497,38.712],[1.593,38.701],[1.594,38.672]]],[[[3.145,39.79],[3.241,39.757],[3.342,39.787],[3.396,39.777],[3.449,39.761],[3.462,39.698],[3.415,39.627],[3.349,39.556],[3.293,39.477],[3.245,39.387],[3.155,39.333],[3.073,39.301],[2.9,39.368],[2.8,39.385],[2.77,39.41],[2.746,39.51],[2.701,39.542],[2.634,39.556],[2.576,39.531],[2.5,39.478],[2.459,39.53],[2.394,39.54],[2.37,39.572],[2.371,39.613],[2.785,39.855],[2.905,39.908],[3.159,39.971],[3.198,39.961],[3.164,39.924],[3.167,39.908],[3.199,39.89],[3.191,39.861],[3.159,39.837],[3.145,39.79]]],[[[4.294,39.842],[4.275,39.83],[3.968,39.946],[3.867,39.959],[3.843,39.976],[3.845,40.036],[3.853,40.063],[4.059,40.075],[4.226,40.032],[4.315,39.917],[4.322,39.898],[4.294,39.842]]],[[[1.445,38.919],[1.409,38.857],[1.257,38.879],[1.223,38.904],[1.256,38.973],[1.3,38.982],[1.303,39.031],[1.349,39.081],[1.564,39.121],[1.613,39.087],[1.624,39.039],[1.495,38.933],[1.445,38.919]]],[[[-1.794,43.407],[-1.793,43.373],[-1.753,43.325],[-1.713,43.307],[-1.627,43.282],[-1.561,43.279],[-1.472,43.268],[-1.411,43.24],[-1.407,43.197],[-1.423,43.149],[-1.459,43.105],[-1.48,43.071],[-1.461,43.052],[-1.429,43.037],[-1.394,43.033],[-1.371,43.038],[-1.353,43.064],[-1.319,43.097],[-1.3,43.101],[-1.302,43.082],[-1.285,43.06],[-1.175,43.021],[-0.934,42.95],[-0.839,42.948],[-0.763,42.94],[-0.74,42.91],[-0.586,42.799],[-0.55,42.802],[-0.481,42.799],[-0.398,42.808],[-0.339,42.829],[-0.299,42.825],[-0.256,42.804],[-0.205,42.785],[-0.14,42.749],[-0.081,42.704],[-0.041,42.689],[0.201,42.719],[0.255,42.693],[0.313,42.693],[0.377,42.7],[0.518,42.686],[0.632,42.69],[0.642,42.701],[0.652,42.8],[0.67,42.836],[0.697,42.845],[0.764,42.838],[1.01,42.779],[1.111,42.742],[1.208,42.713],[1.293,42.71],[1.349,42.691],[1.428,42.596],[1.415,42.548],[1.422,42.531],[1.43,42.498],[1.428,42.461],[1.449,42.437],[1.486,42.434],[1.534,42.442],[1.586,42.456],[1.679,42.497],[1.706,42.503],[1.86,42.457],[1.928,42.426],[1.951,42.393],[1.987,42.358],[2.033,42.354],[2.098,42.386],[2.2,42.421],[2.374,42.39],[2.568,42.346],[2.652,42.34],[2.655,42.362],[2.67,42.393],[2.702,42.408],[2.749,42.413],[2.816,42.429],[2.891,42.456],[2.97,42.467],[3.053,42.447],[3.152,42.431],[3.211,42.431],[3.24,42.368],[3.288,42.344],[3.307,42.289],[3.219,42.26],[3.166,42.256],[3.15,42.162],[3.175,42.136],[3.225,42.111],[3.238,42.082],[3.248,41.944],[3.147,41.861],[3.005,41.767],[2.311,41.467],[2.146,41.321],[2.083,41.287],[1.567,41.196],[1.206,41.098],[1.033,41.062],[0.817,40.892],[0.715,40.823],[0.796,40.804],[0.891,40.722],[0.859,40.686],[0.721,40.63],[0.66,40.613],[0.627,40.622],[0.596,40.615],[0.364,40.319],[0.158,40.107],[0.043,40.014],[-0.075,39.876],[-0.327,39.52],[-0.329,39.417],[-0.205,39.063],[-0.134,38.969],[-0.034,38.891],[0.155,38.825],[0.202,38.759],[0.136,38.697],[-0.053,38.586],[-0.381,38.436],[-0.521,38.317],[-0.551,38.203],[-0.647,38.152],[-0.683,37.992],[-0.742,37.886],[-0.753,37.85],[-0.815,37.77],[-0.823,37.712],[-0.722,37.631],[-0.772,37.596],[-0.822,37.581],[-0.938,37.571],[-1.328,37.561],[-1.641,37.387],[-1.798,37.233],[-1.939,36.946],[-2.112,36.777],[-2.188,36.745],[-2.306,36.82],[-2.453,36.831],[-2.596,36.806],[-2.671,36.748],[-2.788,36.715],[-2.902,36.743],[-3.149,36.758],[-3.259,36.756],[-3.431,36.708],[-3.579,36.74],[-3.828,36.756],[-4.367,36.718],[-4.435,36.7],[-4.502,36.629],[-4.674,36.506],[-4.935,36.502],[-5.171,36.424],[-5.231,36.374],[-5.33,36.236],[-5.361,36.135],[-5.382,36.134],[-5.407,36.159],[-5.444,36.151],[-5.462,36.074],[-5.551,36.039],[-5.625,36.026],[-5.808,36.088],[-5.961,36.182],[-6.041,36.188],[-6.17,36.334],[-6.226,36.426],[-6.266,36.527],[-6.258,36.565],[-6.269,36.597],[-6.384,36.637],[-6.412,36.729],[-6.328,36.848],[-6.259,36.899],[-6.217,36.914],[-6.321,36.908],[-6.396,36.832],[-6.492,36.955],[-6.885,37.194],[-6.859,37.249],[-6.864,37.279],[-6.929,37.215],[-6.975,37.198],[-7.175,37.209],[-7.406,37.179],[-7.467,37.428],[-7.496,37.524],[-7.504,37.585],[-7.444,37.728],[-7.379,37.786],[-7.292,37.906],[-7.185,38.006],[-7.073,38.03],[-7.023,38.045],[-6.981,38.122],[-6.958,38.188],[-6.975,38.194],[-7.106,38.181],[-7.343,38.457],[-7.336,38.501],[-7.306,38.567],[-7.286,38.649],[-7.282,38.715],[-7.22,38.771],[-7.125,38.827],[-7.046,38.907],[-7.006,38.985],[-6.998,39.056],[-7.043,39.107],[-7.172,39.135],[-7.306,39.338],[-7.335,39.465],[-7.363,39.478],[-7.445,39.536],[-7.524,39.645],[-7.536,39.662],[-7.454,39.681],[-7.118,39.682],[-7.047,39.706],[-6.975,39.798],[-6.911,39.937],[-6.896,40.022],[-6.916,40.057],[-7.028,40.143],[-7.033,40.168],[-7.015,40.208],[-6.948,40.252],[-6.859,40.301],[-6.81,40.343],[-6.822,40.376],[-6.848,40.411],[-6.852,40.443],[-6.836,40.483],[-6.83,40.619],[-6.818,40.654],[-6.836,40.777],[-6.858,40.878],[-6.928,41.009],[-6.916,41.038],[-6.883,41.062],[-6.776,41.108],[-6.69,41.215],[-6.566,41.304],[-6.403,41.375],[-6.289,41.455],[-6.244,41.516],[-6.212,41.532],[-6.222,41.56],[-6.243,41.602],[-6.308,41.642],[-6.392,41.665],[-6.485,41.664],[-6.542,41.673],[-6.559,41.704],[-6.553,41.79],[-6.558,41.874],[-6.575,41.913],[-6.618,41.942],[-6.704,41.935],[-6.777,41.958],[-6.833,41.964],[-6.866,41.945],[-7.03,41.951],[-7.099,41.964],[-7.147,41.981],[-7.178,41.972],[-7.195,41.955],[-7.198,41.929],[-7.21,41.895],[-7.269,41.864],[-7.404,41.834],[-7.513,41.836],[-7.613,41.858],[-7.645,41.874],[-7.693,41.888],[-7.896,41.871],[-7.921,41.884],[-7.991,41.852],[-8.094,41.814],[-8.152,41.812],[-8.174,41.82],[-8.181,41.837],[-8.225,41.896],[-8.213,41.927],[-8.13,42.018],[-8.139,42.04],[-8.174,42.069],[-8.204,42.112],[-8.213,42.134],[-8.266,42.137],[-8.323,42.115],[-8.538,42.069],[-8.59,42.053],[-8.683,42.008],[-8.777,41.941],[-8.852,41.927],[-8.878,41.947],[-8.887,42.105],[-8.772,42.211],[-8.691,42.274],[-8.729,42.287],[-8.816,42.285],[-8.81,42.334],[-8.769,42.358],[-8.73,42.412],[-8.776,42.435],[-8.812,42.47],[-8.81,42.562],[-8.8,42.6],[-8.812,42.64],[-8.988,42.586],[-9.033,42.594],[-9.035,42.662],[-8.937,42.767],[-8.927,42.799],[-9.042,42.814],[-9.127,42.865],[-9.179,42.911],[-9.235,42.977],[-9.236,43.036],[-9.178,43.174],[-9.096,43.214],[-9.025,43.239],[-8.874,43.334],[-8.666,43.317],[-8.537,43.337],[-8.422,43.386],[-8.355,43.397],[-8.249,43.439],[-8.252,43.497],[-8.289,43.54],[-8.257,43.58],[-8.137,43.629],[-8.005,43.694],[-7.853,43.707],[-7.698,43.765],[-7.595,43.727],[-7.504,43.74],[-7.399,43.696],[-7.262,43.595],[-7.061,43.554],[-6.901,43.586],[-6.617,43.592],[-6.476,43.579],[-6.224,43.604],[-6.08,43.595],[-5.847,43.645],[-5.666,43.582],[-5.316,43.553],[-5.105,43.502],[-4.523,43.416],[-4.313,43.415],[-4.015,43.463],[-3.889,43.499],[-3.774,43.478],[-3.605,43.519],[-3.524,43.511],[-3.418,43.452],[-3.046,43.372],[-2.948,43.44],[-2.875,43.454],[-2.607,43.413],[-2.337,43.328],[-2.197,43.322],[-1.991,43.345],[-1.829,43.401],[-1.794,43.407]]]]}},{"type":"Feature","properties":{"pais":"PRT","nombre":"Portugal"},"geometry":{"type":"MultiPolygon","coordinates":[[[[-8.777,41.941],[-8.683,42.008],[-8.59,42.053],[-8.538,42.069],[-8.323,42.115],[-8.266,42.137],[-8.213,42.134],[-8.204,42.112],[-8.174,42.069],[-8.139,42.04],[-8.13,42.018],[-8.213,41.927],[-8.225,41.896],[-8.181,41.837],[-8.174,41.82],[-8.152,41.812],[-8.094,41.814],[-7.991,41.852],[-7.921,41.884],[-7.896,41.871],[-7.693,41.888],[-7.645,41.874],[-7.613,41.858],[-7.513,41.836],[-7.404,41.834],[-7.269,41.864],[-7.21,41.895],[-7.198,41.929],[-7.195,41.955],[-7.178,41.972],[-7.147,41.981],[-7.099,41.964],[-7.03,41.951],[-6.866,41.945],[-6.833,41.964],[-6.777,41.958],[-6.704,41.935],[-6.618,41.942],[-6.575,41.913],[-6.558,41.874],[-6.553,41.79],[-6.559,41.704],[-6.542,41.673],[-6.485,41.664],[-6.392,41.665],[-6.308,41.642],[-6.243,41.602],[-6.222,41.56],[-6.212,41.532],[-6.244,41.516],[-6.289,41.455],[-6.403,41.375],[-6.566,41.304],[-6.69,41.215],[-6.776,41.108],[-6.883,41.062],[-6.916,41.038],[-6.928,41.009],[-6.858,40.878],[-6.836,40.777],[-6.818,40.654],[-6.83,40.619],[-6.836,40.483],[-6.852,40.443],[-6.848,40.411],[-6.822,40.376],[-6.81,40.343],[-6.859,40.301],[-6.948,40.252],[-7.015,40.208],[-7.033,40.168],[-7.028,40.143],[-6.916,40.057],[-6.896,40.022],[-6.911,39.937],[-6.975,39.798],[-7.037,39.714],[-7.118,39.682],[-7.454,39.681],[-7.536,39.662],[-7.524,39.645],[-7.445,39.536],[-7.363,39.478],[-7.335,39.465],[-7.306,39.338],[-7.172,39.135],[-7.043,39.107],[-6.998,39.056],[-7.006,38.985],[-7.046,38.907],[-7.125,38.827],[-7.22,38.771],[-7.282,38.715],[-7.286,38.649],[-7.306,38.567],[-7.336,38.501],[-7.343,38.457],[-7.106,38.181],[-6.975,38.194],[-6.958,38.188],[-6.981,38.122],[-7.023,38.045],[-7.073,38.03],[-7.185,38.006],[-7.292,37.906],[-7.379,37.786],[-7.444,37.728],[-7.504,37.585],[-7.496,37.524],[-7.467,37.428],[-7.406,37.179],[-7.494,37.168],[-7.834,37.006],[-7.94,37.005],[-8.137,37.077],[-8.484,37.1],[-8.598,37.121],[-8.739,37.075],[-8.848,37.076],[-8.935,37.016],[-8.998,37.032],[-8.926,37.166],[-8.814,37.431],[-8.819,37.592],[-8.792,37.733],[-8.823,37.872],[-8.879,37.959],[-8.802,38.184],[-8.811,38.3],[-8.881,38.447],[-8.668,38.424],[-8.734,38.482],[-8.799,38.518],[-8.862,38.51],[-8.915,38.512],[-9.096,38.455],[-9.187,38.438],[-9.213,38.448],[-9.203,38.539],[-9.25,38.657],[-9.178,38.688],[-9.093,38.697],[-9.021,38.747],[-8.977,38.803],[-9,38.903],[-8.938,38.998],[-8.792,39.078],[-8.867,39.066],[-8.954,39.016],[-9.091,38.835],[-9.136,38.743],[-9.252,38.713],[-9.357,38.698],[-9.41,38.708],[-9.474,38.731],[-9.48,38.799],[-9.475,38.853],[-9.431,38.96],[-9.414,39.112],[-9.353,39.248],[-9.357,39.284],[-9.375,39.338],[-9.32,39.391],[-9.251,39.426],[-9.148,39.543],[-9.004,39.821],[-8.838,40.116],[-8.851,40.152],[-8.887,40.179],[-8.873,40.259],[-8.772,40.606],[-8.732,40.651],[-8.685,40.753],[-8.674,40.917],[-8.656,41.029],[-8.66,41.086],[-8.675,41.154],[-8.738,41.285],[-8.806,41.56],[-8.811,41.652],[-8.755,41.698],[-8.846,41.705],[-8.888,41.765],[-8.878,41.832],[-8.777,41.941]]]]}},{"type":"Feature","properties":{"pais":"MAR","nombre":"Marruecos"},"geometry":{"type":"MultiPolygon","coordinates":[[[[-2.22,35.104],[-2.191,35.03],[-2.132,34.971],[-1.921,34.836],[-1.796,34.752],[-1.792,34.723],[-1.832,34.655],[-1.85,34.607],[-1.817,34.557],[-1.739,34.496],[-1.733,34.467],[-1.752,34.433],[-1.792,34.368],[-1.707,34.176],[-1.693,33.99],[-1.715,33.858],[-1.714,33.782],[-1.703,33.717],[-1.631,33.567],[-1.679,33.319],[-1.625,33.183],[-1.551,33.074],[-1.51,32.878],[-1.45,32.785],[-1.352,32.703],[-1.296,32.676],[-1.188,32.608],[-1.111,32.552],[-1.066,32.468],[-1.163,32.399],[-1.24,32.338],[-1.262,32.271],[-1.226,32.165],[-1.226,32.107],[-1.275,32.089],[-1.477,32.095],[-1.635,32.1],[-1.817,32.105],[-2.073,32.115],[-2.231,32.121],[-2.448,32.13],[-2.523,32.126],[-2.723,32.096],[-2.863,32.075],[-2.887,32.069],[-2.931,32.043],[-2.961,31.964],[-2.988,31.874],[-3.017,31.834],[-3.44,31.705],[-3.605,31.687],[-3.7,31.7],[-3.768,31.69],[-3.827,31.662],[-3.847,31.62],[-3.85,31.566],[-3.837,31.512],[-3.796,31.437],[-3.789,31.362],[-3.815,31.309],[-3.821,31.255],[-3.833,31.198],[-3.812,31.167],[-3.771,31.162],[-3.73,31.135],[-3.673,31.111],[-3.625,31.066],[-3.627,31.001],[-3.667,30.964],[-3.702,30.944],[-3.86,30.927],[-3.985,30.914],[-4.149,30.81],[-4.323,30.699],[-4.529,30.626],[-4.62,30.605],[-4.779,30.552],[-4.968,30.465],[-5.062,30.326],[-5.18,30.166],[-5.294,30.059],[-5.449,29.957],[-5.593,29.918],[-5.775,29.869],[-6.004,29.831],[-6.167,29.819],[-6.215,29.811],[-6.358,29.808],[-6.428,29.816],[-6.48,29.82],[-6.501,29.809],[-6.508,29.784],[-6.511,29.726],[-6.521,29.66],[-6.566,29.604],[-6.598,29.579],[-6.635,29.569],[-6.755,29.584],[-6.856,29.602],[-7.095,29.625],[-7.142,29.62],[-7.16,29.613],[-7.235,29.575],[-7.35,29.495],[-7.428,29.425],[-7.486,29.392],[-7.625,29.375],[-7.685,29.35],[-7.944,29.175],[-7.999,29.132],[-8.265,28.981],[-8.34,28.93],[-8.399,28.88],[-8.558,28.768],[-8.66,28.719],[-8.678,28.689],[-8.683,28.621],[-8.683,28.469],[-8.683,28.324],[-8.683,28.112],[-8.683,27.9],[-8.683,27.656],[-8.818,27.656],[-8.814,27.614],[-8.785,27.531],[-8.774,27.461],[-8.789,27.417],[-8.803,27.361],[-8.797,27.308],[-8.774,27.251],[-8.754,27.191],[-8.754,27.151],[-8.795,27.121],[-8.889,27.104],[-9.002,27.09],[-9.084,27.09],[-9.208,27.1],[-9.286,27.098],[-9.353,27.098],[-9.413,27.088],[-9.487,27.05],[-9.57,26.991],[-9.673,26.911],[-9.735,26.861],[-9.818,26.85],[-9.9,26.85],[-9.981,26.89],[-10.033,26.911],[-10.067,26.909],[-10.123,26.88],[-10.189,26.861],[-10.251,26.861],[-10.355,26.901],[-10.479,26.961],[-10.551,26.991],[-10.654,27.001],[-10.758,27.02],[-10.83,27.01],[-10.923,27.01],[-11.047,26.97],[-11.15,26.941],[-11.264,26.911],[-11.393,26.883],[-11.361,26.794],[-11.317,26.745],[-11.317,26.684],[-11.338,26.633],[-11.4,26.584],[-11.471,26.52],[-11.512,26.47],[-11.553,26.401],[-11.584,26.361],[-11.637,26.296],[-11.685,26.213],[-11.699,26.163],[-11.718,26.104],[-11.755,26.087],[-11.881,26.071],[-11.961,26.05],[-12.031,26.031],[-12.057,25.996],[-12.081,25.921],[-12.081,25.871],[-12.101,25.831],[-12.131,25.731],[-12.171,25.64],[-12.201,25.52],[-12.231,25.421],[-12.271,25.26],[-12.311,25.111],[-12.361,24.97],[-12.401,24.88],[-12.431,24.831],[-12.501,24.77],[-12.561,24.731],[-12.631,24.68],[-12.711,24.63],[-12.821,24.571],[-12.911,24.52],[-12.948,24.497],[-12.991,24.47],[-13.061,24.401],[-13.121,24.3],[-13.161,24.22],[-13.231,24.09],[-13.281,24.02],[-13.311,23.981],[-13.391,23.941],[-13.481,23.911],[-13.581,23.871],[-13.661,23.831],[-13.771,23.791],[-13.841,23.751],[-13.891,23.691],[-13.931,23.621],[-13.981,23.52],[-14.021,23.411],[-14.041,23.34],[-14.101,23.1],[-14.121,22.961],[-14.141,22.871],[-14.171,22.76],[-14.191,22.59],[-14.191,22.451],[-14.211,22.371],[-14.221,22.31],[-14.271,22.241],[-14.311,22.191],[-14.381,22.121],[-14.441,22.081],[-14.461,22.041],[-14.521,21.991],[-14.581,21.911],[-14.631,21.861],[-14.621,21.821],[-14.611,21.751],[-14.641,21.68],[-14.671,21.6],[-14.751,21.501],[-14.841,21.451],[-14.971,21.441],[-15.151,21.441],[-15.291,21.451],[-15.461,21.451],[-15.611,21.47],[-15.751,21.491],[-15.921,21.501],[-16.041,21.501],[-16.191,21.481],[-16.581,21.481],[-16.731,21.47],[-16.951,21.43],[-17.003,21.421],[-16.931,21.9],[-16.793,22.16],[-16.684,22.274],[-16.514,22.333],[-16.359,22.595],[-16.304,22.835],[-16.202,22.945],[-16.17,23.032],[-16.21,23.098],[-16.114,23.228],[-15.997,23.425],[-15.943,23.553],[-15.806,23.75],[-15.789,23.793],[-15.802,23.842],[-15.855,23.8],[-15.913,23.728],[-15.981,23.67],[-15.953,23.741],[-15.899,23.844],[-15.778,23.953],[-15.586,24.073],[-15.189,24.479],[-15.039,24.549],[-14.904,24.72],[-14.856,24.872],[-14.843,25.22],[-14.795,25.404],[-14.707,25.548],[-14.602,25.809],[-14.523,25.925],[-14.471,26.163],[-14.414,26.254],[-14.312,26.297],[-14.168,26.415],[-13.952,26.489],[-13.696,26.643],[-13.576,26.735],[-13.496,26.873],[-13.41,27.147],[-13.256,27.435],[-13.177,27.652],[-13.041,27.77],[-12.949,27.914],[-12.794,27.978],[-12.469,28.009],[-11.986,28.129],[-11.553,28.31],[-11.43,28.382],[-11.299,28.526],[-11.081,28.714],[-10.674,28.939],[-10.486,29.065],[-10.201,29.38],[-10.01,29.641],[-9.853,29.809],[-9.743,29.958],[-9.667,30.109],[-9.624,30.353],[-9.653,30.448],[-9.773,30.603],[-9.854,30.645],[-9.875,30.718],[-9.832,30.847],[-9.833,31.07],[-9.809,31.425],[-9.675,31.711],[-9.347,32.086],[-9.287,32.241],[-9.249,32.486],[-9.246,32.572],[-8.836,32.92],[-8.596,33.187],[-8.513,33.252],[-8.301,33.374],[-7.562,33.64],[-7.145,33.83],[-6.901,33.969],[-6.756,34.133],[-6.353,34.776],[-5.958,35.681],[-5.925,35.786],[-5.748,35.816],[-5.623,35.829],[-5.522,35.862],[-5.397,35.93],[-5.278,35.903],[-5.338,35.857],[-5.338,35.745],[-5.253,35.615],[-5.105,35.468],[-4.837,35.281],[-4.628,35.206],[-4.33,35.161],[-3.982,35.243],[-3.788,35.245],[-3.693,35.28],[-3.591,35.228],[-3.395,35.212],[-3.206,35.239],[-3.063,35.317],[-2.972,35.407],[-2.958,35.363],[-2.954,35.315],[-2.926,35.287],[-2.87,35.173],[-2.84,35.128],[-2.731,35.135],[-2.637,35.113],[-2.424,35.123],[-2.22,35.104]]]]}},{"type":"Feature","properties":{"pais":"FRA","nombre":"Francia"},"geometry":{"type":"MultiPolygon","coordinates":[[[[7.616,47.593],[7.495,47.547],[7.467,47.508],[7.42,47.455],[7.343,47.433],[7.266,47.426],[7.203,47.433],[7.167,47.454],[7.169,47.473],[7.136,47.49],[7.053,47.489],[6.968,47.453],[6.9,47.394],[6.921,47.361],[6.984,47.353],[7.001,47.339],[7.001,47.323],[6.979,47.302],[6.952,47.267],[6.821,47.163],[6.688,47.058],[6.667,47.027],[6.625,47.004],[6.456,46.948],[6.439,46.926],[6.429,46.832],[6.41,46.755],[6.285,46.683],[6.161,46.611],[6.13,46.567],[6.107,46.516],[6.068,46.459],[6.06,46.428],[6.123,46.379],[6.116,46.338],[6.096,46.279],[6.036,46.238],[5.97,46.215],[5.971,46.151],[6.007,46.142],[6.087,46.147],[6.199,46.193],[6.273,46.252],[6.23,46.308],[6.224,46.319],[6.235,46.333],[6.322,46.394],[6.429,46.431],[6.578,46.437],[6.758,46.416],[6.776,46.407],[6.767,46.369],[6.784,46.314],[6.817,46.275],[6.772,46.165],[6.806,46.131],[6.858,46.089],[6.897,46.052],[6.954,46.017],[7.004,45.959],[7.021,45.926],[6.941,45.868],[6.804,45.815],[6.789,45.78],[6.791,45.741],[6.806,45.71],[6.881,45.67],[6.962,45.581],[7.014,45.5],[7.126,45.424],[7.153,45.401],[7.146,45.382],[7.117,45.349],[7.078,45.24],[7.032,45.223],[6.981,45.216],[6.842,45.136],[6.78,45.145],[6.692,45.144],[6.628,45.118],[6.635,45.068],[6.691,45.023],[6.725,44.973],[6.738,44.921],[6.801,44.883],[6.889,44.86],[6.94,44.859],[6.973,44.845],[6.993,44.827],[7.031,44.717],[7.008,44.689],[6.96,44.677],[6.932,44.632],[6.875,44.565],[6.843,44.511],[6.879,44.463],[6.894,44.428],[6.875,44.392],[6.9,44.336],[6.967,44.28],[7.149,44.202],[7.319,44.138],[7.371,44.127],[7.599,44.168],[7.637,44.165],[7.665,44.116],[7.677,44.083],[7.651,44.034],[7.59,43.965],[7.523,43.911],[7.482,43.865],[7.491,43.823],[7.493,43.767],[7.439,43.75],[7.437,43.761],[7.414,43.771],[7.395,43.765],[7.38,43.753],[7.378,43.732],[7.262,43.696],[7.181,43.659],[6.865,43.438],[6.717,43.374],[6.687,43.335],[6.657,43.262],[6.57,43.199],[6.494,43.169],[6.305,43.139],[6.116,43.072],[6.031,43.101],[5.809,43.098],[5.672,43.178],[5.407,43.229],[5.32,43.345],[5.2,43.352],[5.12,43.349],[5.073,43.367],[5.061,43.406],[5.06,43.445],[4.976,43.427],[4.912,43.427],[4.874,43.412],[4.844,43.394],[4.808,43.405],[4.787,43.401],[4.789,43.379],[4.712,43.373],[4.629,43.387],[4.41,43.447],[4.376,43.456],[4.224,43.48],[4.163,43.504],[4.113,43.563],[4.075,43.582],[4.053,43.593],[3.911,43.563],[3.862,43.516],[3.785,43.462],[3.259,43.193],[3.163,43.081],[3.052,42.915],[3.043,42.838],[3.091,42.591],[3.198,42.461],[3.211,42.431],[3.152,42.431],[3.053,42.447],[2.97,42.467],[2.891,42.456],[2.816,42.429],[2.749,42.413],[2.702,42.408],[2.67,42.393],[2.655,42.362],[2.652,42.34],[2.568,42.346],[2.374,42.39],[2.2,42.421],[2.098,42.386],[2.033,42.354],[1.987,42.358],[1.951,42.393],[1.928,42.426],[1.86,42.457],[1.706,42.503],[1.714,42.526],[1.74,42.557],[1.739,42.576],[1.71,42.604],[1.568,42.635],[1.501,42.643],[1.459,42.622],[1.428,42.596],[1.349,42.691],[1.293,42.71],[1.208,42.713],[1.111,42.742],[1.01,42.779],[0.764,42.838],[0.697,42.845],[0.67,42.836],[0.652,42.8],[0.642,42.701],[0.632,42.69],[0.518,42.686],[0.377,42.7],[0.313,42.693],[0.255,42.693],[0.201,42.719],[-0.041,42.689],[-0.081,42.704],[-0.14,42.749],[-0.205,42.785],[-0.256,42.804],[-0.299,42.825],[-0.339,42.829],[-0.398,42.808],[-0.481,42.799],[-0.55,42.802],[-0.586,42.799],[-0.74,42.91],[-0.763,42.94],[-0.839,42.948],[-0.934,42.95],[-1.175,43.021],[-1.285,43.06],[-1.302,43.082],[-1.3,43.101],[-1.319,43.097],[-1.353,43.064],[-1.371,43.038],[-1.394,43.033],[-1.429,43.037],[-1.461,43.052],[-1.48,43.071],[-1.459,43.105],[-1.423,43.149],[-1.407,43.197],[-1.411,43.24],[-1.472,43.268],[-1.561,43.279],[-1.627,43.282],[-1.713,43.307],[-1.753,43.325],[-1.793,43.373],[-1.794,43.407],[-1.631,43.438],[-1.485,43.564],[-1.346,44.02],[-1.246,44.56],[-1.171,44.662],[-1.077,44.69],[-1.153,44.764],[-1.2,44.726],[-1.22,44.687],[-1.245,44.667],[-1.189,45.161],[-1.149,45.343],[-1.081,45.532],[-0.942,45.457],[-0.826,45.381],[-0.767,45.314],[-0.691,45.093],[-0.634,45.047],[-0.548,45.001],[-0.582,45.051],[-0.641,45.09],[-0.733,45.385],[-0.791,45.468],[-0.881,45.538],[-1.17,45.686],[-1.196,45.714],[-1.21,45.771],[-1.114,45.769],[-1.032,45.741],[-1.042,45.773],[-1.066,45.806],[-1.104,45.925],[-1.136,46.205],[-1.132,46.253],[-1.146,46.311],[-1.239,46.325],[-1.313,46.327],[-1.392,46.35],[-1.787,46.515],[-1.921,46.685],[-2.059,46.81],[-2.092,46.865],[-2.09,46.921],[-2.019,47.038],[-2.082,47.112],[-2.144,47.126],[-2.197,47.163],[-2.149,47.224],[-2.108,47.263],[-2.028,47.274],[-1.922,47.261],[-1.821,47.225],[-1.743,47.216],[-1.975,47.311],[-2.353,47.279],[-2.434,47.291],[-2.503,47.312],[-2.53,47.382],[-2.476,47.413],[-2.428,47.471],[-2.483,47.512],[-2.554,47.527],[-2.666,47.526],[-2.77,47.514],[-2.797,47.537],[-2.733,47.602],[-2.787,47.626],[-2.859,47.614],[-2.964,47.601],[-3.064,47.621],[-3.159,47.695],[-3.222,47.694],[-3.265,47.685],[-3.329,47.713],[-3.396,47.72],[-3.444,47.711],[-3.508,47.753],[-3.901,47.838],[-4.071,47.848],[-4.226,47.81],[-4.312,47.823],[-4.375,47.877],[-4.428,47.969],[-4.679,48.04],[-4.629,48.086],[-4.512,48.097],[-4.378,48.129],[-4.329,48.17],[-4.435,48.218],[-4.512,48.23],[-4.544,48.247],[-4.577,48.29],[-4.531,48.31],[-4.498,48.299],[-4.403,48.293],[-4.241,48.304],[-4.302,48.347],[-4.364,48.357],[-4.393,48.368],[-4.525,48.372],[-4.585,48.358],[-4.719,48.363],[-4.749,48.41],[-4.762,48.45],[-4.721,48.54],[-4.531,48.62],[-4.059,48.708],[-3.856,48.695],[-3.715,48.71],[-3.546,48.766],[-3.471,48.813],[-3.231,48.841],[-3.003,48.791],[-2.793,48.601],[-2.692,48.537],[-2.446,48.648],[-2.079,48.645],[-2.004,48.582],[-1.973,48.635],[-1.906,48.697],[-1.852,48.669],[-1.825,48.631],[-1.438,48.641],[-1.376,48.653],[-1.48,48.698],[-1.565,48.806],[-1.583,49.202],[-1.69,49.313],[-1.813,49.49],[-1.87,49.595],[-1.875,49.631],[-1.856,49.684],[-1.705,49.681],[-1.588,49.668],[-1.366,49.707],[-1.259,49.68],[-1.265,49.598],[-1.232,49.495],[-1.195,49.445],[-1.139,49.388],[-0.959,49.393],[-0.766,49.36],[-0.521,49.355],[-0.163,49.297],[-0.011,49.33],[0.136,49.402],[0.417,49.448],[0.439,49.473],[0.278,49.463],[0.129,49.508],[0.109,49.558],[0.127,49.602],[0.187,49.703],[0.616,49.863],[0.924,49.91],[1.246,49.998],[1.407,50.089],[1.514,50.205],[1.548,50.231],[1.593,50.252],[1.552,50.294],[1.579,50.739],[1.61,50.819],[1.672,50.885],[1.768,50.936],[1.913,50.991],[2.446,51.067],[2.525,51.097],[2.536,51.05],[2.575,50.989],[2.601,50.955],[2.579,50.912],[2.597,50.876],[2.669,50.811],[2.759,50.751],[2.84,50.712],[2.862,50.716],[2.922,50.727],[3.023,50.767],[3.107,50.779],[3.155,50.749],[3.182,50.732],[3.235,50.663],[3.25,50.591],[3.273,50.532],[3.316,50.507],[3.477,50.499],[3.595,50.477],[3.627,50.457],[3.667,50.325],[3.689,50.306],[3.719,50.322],[3.748,50.344],[3.789,50.347],[3.858,50.339],[3.95,50.336],[4.044,50.321],[4.175,50.246],[4.17,50.222],[4.144,50.178],[4.135,50.144],[4.158,50.13],[4.192,50.094],[4.184,50.053],[4.15,50.024],[4.137,50],[4.137,49.984],[4.149,49.972],[4.176,49.96],[4.369,49.945],[4.545,49.96],[4.656,50.002],[4.675,50.047],[4.707,50.097],[4.773,50.139],[4.819,50.153],[4.861,50.136],[4.79,49.96],[4.842,49.915],[4.849,49.847],[4.868,49.788],[4.931,49.789],[5.007,49.778],[5.061,49.757],[5.124,49.721],[5.215,49.689],[5.279,49.678],[5.302,49.651],[5.354,49.62],[5.435,49.554],[5.507,49.511],[5.542,49.511],[5.61,49.528],[5.71,49.539],[5.79,49.538],[5.823,49.505],[5.901,49.49],[5.929,49.478],[5.959,49.455],[6.011,49.445],[6.074,49.455],[6.12,49.485],[6.181,49.499],[6.242,49.494],[6.277,49.478],[6.344,49.453],[6.382,49.458],[6.458,49.443],[6.534,49.395],[6.566,49.346],[6.575,49.32],[6.608,49.291],[6.735,49.161],[6.776,49.154],[6.821,49.174],[6.85,49.202],[6.891,49.208],[6.958,49.195],[7.001,49.18],[7.022,49.123],[7.037,49.113],[7.066,49.125],[7.117,49.128],[7.2,49.114],[7.313,49.13],[7.404,49.153],[7.451,49.152],[7.525,49.086],[7.611,49.062],[7.799,49.042],[8.001,49.011],[8.081,48.986],[8.135,48.974],[8.14,48.886],[8.124,48.873],[7.923,48.699],[7.838,48.636],[7.795,48.547],[7.765,48.41],[7.706,48.28],[7.617,48.157],[7.584,48.064],[7.608,48.003],[7.593,47.906],[7.539,47.774],[7.529,47.674],[7.565,47.607],[7.616,47.593]]],[[[-1.178,45.904],[-1.214,45.817],[-1.28,45.897],[-1.369,45.968],[-1.389,46.033],[-1.389,46.05],[-1.285,46.003],[-1.178,45.904]]]]}},{"type":"Feature","properties":{"pais":"AND","nombre":"Andorra"},"geometry":{"type":"MultiPolygon","coordinates":[[[[1.706,42.503],[1.679,42.497],[1.586,42.456],[1.534,42.442],[1.486,42.434],[1.449,42.437],[1.428,42.461],[1.43,42.498],[1.422,42.531],[1.415,42.548],[1.428,42.596],[1.459,42.622],[1.501,42.643],[1.568,42.635],[1.71,42.604],[1.739,42.576],[1.74,42.557],[1.714,42.526],[1.706,42.503]]]]}},{"type":"Feature","properties":{"pais":"DZA","nombre":"Argelia"},"geometry":{"type":"MultiPolygon","coordinates":[[[[8.577,36.937],[8.598,36.884],[8.601,36.834],[8.507,36.788],[8.444,36.761],[8.37,36.633],[8.231,36.545],[8.208,36.519],[8.209,36.495],[8.303,36.456],[8.334,36.418],[8.349,36.368],[8.307,36.189],[8.28,36.051],[8.246,35.871],[8.247,35.802],[8.283,35.719],[8.318,35.655],[8.329,35.582],[8.316,35.403],[8.36,35.3],[8.394,35.204],[8.312,35.085],[8.277,34.979],[8.255,34.829],[8.246,34.734],[8.193,34.646],[8.123,34.564],[8.046,34.513],[7.949,34.469],[7.838,34.41],[7.749,34.254],[7.554,34.125],[7.514,34.081],[7.496,33.977],[7.5,33.832],[7.534,33.718],[7.628,33.549],[7.709,33.362],[7.731,33.269],[7.763,33.233],[7.877,33.172],[8.076,33.089],[8.113,33.055],[8.211,32.927],[8.304,32.696],[8.333,32.544],[8.515,32.422],[8.683,32.31],[8.844,32.212],[9.019,32.105],[9.044,32.072],[9.102,31.846],[9.16,31.621],[9.224,31.374],[9.288,31.125],[9.363,30.833],[9.406,30.667],[9.458,30.465],[9.519,30.229],[9.421,30.179],[9.31,30.115],[9.391,29.994],[9.546,29.796],[9.64,29.636],[9.673,29.567],[9.746,29.369],[9.805,29.177],[9.821,29.115],[9.843,28.967],[9.816,28.56],[9.858,28.043],[9.916,27.786],[9.825,27.553],[9.748,27.331],[9.753,27.219],[9.795,27.045],[9.837,26.916],[9.894,26.848],[9.883,26.631],[9.859,26.552],[9.685,26.438],[9.491,26.334],[9.438,26.246],[9.422,26.147],[9.448,26.067],[9.581,25.89],[9.781,25.624],[10.001,25.332],[10.019,25.259],[10.028,25.051],[10.12,24.79],[10.219,24.676],[10.256,24.591],[10.326,24.53],[10.396,24.486],[10.439,24.48],[10.686,24.551],[11.108,24.434],[11.508,24.314],[11.537,24.291],[11.624,24.14],[11.767,23.893],[11.873,23.695],[11.968,23.518],[11.45,23.213],[10.932,22.907],[10.414,22.602],[9.896,22.297],[9.379,21.991],[8.861,21.686],[8.343,21.381],[7.825,21.076],[7.482,20.873],[7.263,20.694],[6.989,20.471],[6.731,20.248],[6.527,20.073],[6.263,19.846],[6.131,19.732],[5.837,19.479],[5.748,19.434],[5.359,19.36],[5.001,19.291],[4.671,19.228],[4.446,19.185],[4.228,19.143],[3.91,19.084],[3.683,19.042],[3.439,18.996],[3.401,18.988],[3.356,18.987],[3.323,18.988],[3.256,19.013],[3.174,19.073],[3.12,19.103],[3.106,19.15],[3.138,19.212],[3.177,19.268],[3.192,19.312],[3.22,19.345],[3.254,19.373],[3.256,19.411],[3.227,19.474],[3.202,19.56],[3.203,19.718],[3.203,19.771],[3.204,19.79],[3.13,19.85],[2.992,19.917],[2.866,19.956],[2.808,19.969],[2.668,19.993],[2.474,20.035],[2.406,20.064],[2.281,20.21],[2.219,20.248],[1.929,20.273],[1.832,20.297],[1.753,20.332],[1.685,20.378],[1.647,20.459],[1.636,20.524],[1.611,20.556],[1.29,20.714],[1.209,20.767],[1.166,20.817],[1.164,20.891],[1.173,20.982],[1.159,21.063],[1.146,21.102],[0.999,21.198],[0.672,21.412],[0.344,21.626],[0.017,21.84],[-0.311,22.054],[-0.638,22.268],[-0.965,22.482],[-1.293,22.697],[-1.62,22.911],[-1.948,23.125],[-2.275,23.339],[-2.603,23.553],[-2.93,23.767],[-3.258,23.981],[-3.585,24.195],[-3.913,24.409],[-4.24,24.624],[-4.517,24.804],[-4.823,24.996],[-5.05,25.135],[-5.275,25.275],[-5.517,25.424],[-5.675,25.516],[-5.863,25.627],[-6.051,25.738],[-6.239,25.848],[-6.427,25.959],[-6.615,26.069],[-6.803,26.18],[-6.991,26.291],[-7.179,26.401],[-7.367,26.512],[-7.555,26.622],[-7.743,26.733],[-7.931,26.844],[-8.119,26.954],[-8.307,27.065],[-8.495,27.175],[-8.683,27.286],[-8.683,27.49],[-8.683,27.656],[-8.683,27.9],[-8.683,28.112],[-8.683,28.324],[-8.683,28.469],[-8.683,28.621],[-8.678,28.689],[-8.66,28.719],[-8.558,28.768],[-8.399,28.88],[-8.34,28.93],[-8.265,28.981],[-7.999,29.132],[-7.944,29.175],[-7.685,29.35],[-7.625,29.375],[-7.486,29.392],[-7.428,29.425],[-7.35,29.495],[-7.235,29.575],[-7.16,29.613],[-7.142,29.62],[-7.095,29.625],[-6.856,29.602],[-6.755,29.584],[-6.635,29.569],[-6.598,29.579],[-6.566,29.604],[-6.521,29.66],[-6.511,29.726],[-6.508,29.784],[-6.501,29.809],[-6.48,29.82],[-6.428,29.816],[-6.358,29.808],[-6.215,29.811],[-6.167,29.819],[-6.004,29.831],[-5.775,29.869],[-5.593,29.918],[-5.449,29.957],[-5.294,30.059],[-5.18,30.166],[-5.062,30.326],[-4.968,30.465],[-4.779,30.552],[-4.62,30.605],[-4.529,30.626],[-4.323,30.699],[-4.149,30.81],[-3.985,30.914],[-3.86,30.927],[-3.702,30.944],[-3.667,30.964],[-3.627,31.001],[-3.625,31.066],[-3.673,31.111],[-3.73,31.135],[-3.771,31.162],[-3.812,31.167],[-3.833,31.198],[-3.821,31.255],[-3.815,31.309],[-3.789,31.362],[-3.796,31.437],[-3.837,31.512],[-3.85,31.566],[-3.847,31.62],[-3.827,31.662],[-3.768,31.69],[-3.7,31.7],[-3.605,31.687],[-3.44,31.705],[-3.017,31.834],[-2.988,31.874],[-2.961,31.964],[-2.931,32.043],[-2.887,32.069],[-2.863,32.075],[-2.723,32.096],[-2.523,32.126],[-2.448,32.13],[-2.231,32.121],[-2.073,32.115],[-1.817,32.105],[-1.635,32.1],[-1.477,32.095],[-1.275,32.089],[-1.226,32.107],[-1.226,32.165],[-1.262,32.271],[-1.24,32.338],[-1.163,32.399],[-1.066,32.468],[-1.111,32.552],[-1.188,32.608],[-1.296,32.676],[-1.352,32.703],[-1.45,32.785],[-1.51,32.878],[-1.551,33.074],[-1.625,33.183],[-1.679,33.319],[-1.631,33.567],[-1.703,33.717],[-1.714,33.782],[-1.715,33.858],[-1.693,33.99],[-1.707,34.176],[-1.792,34.368],[-1.752,34.433],[-1.733,34.467],[-1.739,34.496],[-1.817,34.557],[-1.85,34.607],[-1.832,34.655],[-1.792,34.723],[-1.796,34.752],[-1.921,34.836],[-2.132,34.971],[-2.191,35.03],[-2.22,35.104],[-2.018,35.085],[-1.913,35.094],[-1.674,35.183],[-1.484,35.303],[-1.336,35.364],[-1.205,35.496],[-1.088,35.579],[-0.917,35.668],[-0.426,35.862],[-0.351,35.863],[-0.189,35.819],[-0.048,35.833],[0.048,35.901],[0.152,36.063],[0.312,36.162],[0.515,36.262],[0.791,36.357],[0.972,36.444],[1.257,36.52],[1.975,36.568],[2.343,36.61],[2.593,36.601],[2.846,36.739],[2.973,36.784],[3.521,36.795],[3.779,36.896],[4.758,36.896],[4.878,36.862],[4.995,36.808],[5.196,36.677],[5.295,36.648],[5.425,36.675],[5.725,36.8],[6.065,36.864],[6.249,36.938],[6.328,37.046],[6.487,37.086],[6.576,37.003],[6.928,36.919],[7.143,36.943],[7.238,36.969],[7.204,37.092],[7.432,37.059],[7.608,37],[7.792,36.88],[7.91,36.856],[8.127,36.91],[8.577,36.937]]]]}}]}